start=new Date('2022-01-29T00:00:00.000Z').valueOf();
sats=[{"EPOCH":"2022-01-28T18:41:02.934816","PERIAPSIS":"545.752","CLASSIFICATION_TYPE":"U","OBJECT_NAME":"STARLINK-1622","GP_ID":"194842847","CENTER_NAME":"EARTH","SITE":"AFETR","INCLINATION":"53.0546","MEAN_MOTION_DDOT":"0.0000000000000","PERIOD":"95.593","MEAN_MOTION_DOT":"0.00000708","ECCENTRICITY":"0.00021710","LAUNCH_DATE":"2020-08-18","SEMIMAJOR_AXIS":"6925.391","BSTAR":"0.00006648200000","RA_OF_ASC_NODE":"174.4809","MEAN_ANOMALY":"278.1687","TLE_LINE1":"1 46128U 20057M   22028.77850619  .00000708  00000-0  66482-4 0  9997","RCS_SIZE":"LARGE","COUNTRY_CODE":"US","EPHEMERIS_TYPE":"0","TLE_LINE2":"2 46128  53.0546 174.4809 0002171  81.9548 278.1687 15.06386198 80403","MEAN_ELEMENT_THEORY":"SGP4","ARG_OF_PERICENTER":"81.9548","FILE":"3286235","TIME_SYSTEM":"UTC","OBJECT_TYPE":"PAYLOAD","REF_FRAME":"TEME","NORAD_CAT_ID":"46128","REV_AT_EPOCH":"8040","DECAY_DATE":null,"APOAPSIS":"548.759","OBJECT_ID":"2020-057M","ELEMENT_SET_NO":"999","MEAN_MOTION":"15.06386198"},{"REF_FRAME":"TEME","NORAD_CAT_ID":"46129","REV_AT_EPOCH":"8041","DECAY_DATE":null,"APOAPSIS":"548.487","MEAN_ELEMENT_THEORY":"SGP4","TLE_LINE2":"2 46129  53.0548 174.2980 0001810  82.3167 277.8027 15.06393380 80411","FILE":"3286235","ARG_OF_PERICENTER":"82.3167","TIME_SYSTEM":"UTC","OBJECT_TYPE":"PAYLOAD","OBJECT_ID":"2020-057N","ELEMENT_SET_NO":"999","MEAN_MOTION":"15.06393380","INCLINATION":"53.0548","MEAN_MOTION_DDOT":"0.0000000000000","PERIOD":"95.593","ECCENTRICITY":"0.00018100","MEAN_MOTION_DOT":"-0.00001354","EPOCH":"2022-01-28T19:39:24.528960","PERIAPSIS":"545.980","OBJECT_NAME":"STARLINK-1623","CLASSIFICATION_TYPE":"U","GP_ID":"194841595","SITE":"AFETR","CENTER_NAME":"EARTH","RCS_SIZE":"LARGE","COUNTRY_CODE":"US","EPHEMERIS_TYPE":"0","BSTAR":"-0.00007201700000","LAUNCH_DATE":"2020-08-18","SEMIMAJOR_AXIS":"6925.369","RA_OF_ASC_NODE":"174.2980","MEAN_ANOMALY":"277.8027","TLE_LINE1":"1 46129U 20057N   22028.81903390 -.00001354  00000-0 -72017-4 0  9999"},{"DECAY_DATE":null,"REV_AT_EPOCH":"8165","NORAD_CAT_ID":"46130","REF_FRAME":"TEME","APOAPSIS":"548.466","ARG_OF_PERICENTER":"87.9532","FILE":"3286235","MEAN_ELEMENT_THEORY":"SGP4","TLE_LINE2":"2 46130  53.0529 174.4350 0001841  87.9532 272.1667 15.06407215 81654","OBJECT_TYPE":"PAYLOAD","TIME_SYSTEM":"UTC","OBJECT_ID":"2020-057P","MEAN_MOTION":"15.06407215","ELEMENT_SET_NO":"999","MEAN_MOTION_DDOT":"0.0000000000000","INCLINATION":"53.0529","ECCENTRICITY":"0.00018410","MEAN_MOTION_DOT":"0.00002107","PERIOD":"95.592","GP_ID":"194841845","OBJECT_NAME":"STARLINK-1624","CLASSIFICATION_TYPE":"U","PERIAPSIS":"545.916","EPOCH":"2022-01-28T18:51:37.277568","CENTER_NAME":"EARTH","SITE":"AFETR","COUNTRY_CODE":"US","RCS_SIZE":"LARGE","EPHEMERIS_TYPE":"0","RA_OF_ASC_NODE":"174.4350","LAUNCH_DATE":"2020-08-18","SEMIMAJOR_AXIS":"6925.326","BSTAR":"0.00016028000000","TLE_LINE1":"1 46130U 20057P   22028.78584812  .00002107  00000-0  16028-3 0  9995","MEAN_ANOMALY":"272.1667"},{"GP_ID":"194842597","EPOCH":"2022-01-28T20:45:45.751968","PERIAPSIS":"545.861","CLASSIFICATION_TYPE":"U","OBJECT_NAME":"STARLINK-1625","CENTER_NAME":"EARTH","SITE":"AFETR","INCLINATION":"53.0533","MEAN_MOTION_DDOT":"0.0000000000000","MEAN_MOTION_DOT":"0.00002849","ECCENTRICITY":"0.00019530","PERIOD":"95.592","BSTAR":"0.00021007000000","LAUNCH_DATE":"2020-08-18","SEMIMAJOR_AXIS":"6925.348","RA_OF_ASC_NODE":"194.0920","MEAN_ANOMALY":"275.5878","TLE_LINE1":"1 46131U 20057Q   22028.86511287  .00002849  00000-0  21007-3 0  9997","COUNTRY_CODE":"US","RCS_SIZE":"LARGE","EPHEMERIS_TYPE":"0","ARG_OF_PERICENTER":"84.5334","FILE":"3286235","MEAN_ELEMENT_THEORY":"SGP4","TLE_LINE2":"2 46131  53.0533 194.0920 0001953  84.5334 275.5878 15.06400114 81391","OBJECT_TYPE":"PAYLOAD","TIME_SYSTEM":"UTC","REV_AT_EPOCH":"8139","DECAY_DATE":null,"REF_FRAME":"TEME","NORAD_CAT_ID":"46131","APOAPSIS":"548.566","OBJECT_ID":"2020-057Q","ELEMENT_SET_NO":"999","MEAN_MOTION":"15.06400114"},{"SEMIMAJOR_AXIS":"6925.366","LAUNCH_DATE":"2020-08-18","BSTAR":"0.00007919800000","RA_OF_ASC_NODE":"214.5092","MEAN_ANOMALY":"286.7856","TLE_LINE1":"1 46132U 20057R   22028.77111780  .00000898  00000-0  79198-4 0  9999","RCS_SIZE":"LARGE","COUNTRY_CODE":"US","EPHEMERIS_TYPE":"0","EPOCH":"2022-01-28T18:30:24.577920","PERIAPSIS":"545.872","OBJECT_NAME":"STARLINK-1630","CLASSIFICATION_TYPE":"U","GP_ID":"194843347","SITE":"AFETR","CENTER_NAME":"EARTH","INCLINATION":"53.0539","MEAN_MOTION_DDOT":"0.0000000000000","PERIOD":"95.592","MEAN_MOTION_DOT":"0.00000898","ECCENTRICITY":"0.00019620","OBJECT_ID":"2020-057R","ELEMENT_SET_NO":"999","MEAN_MOTION":"15.06394406","MEAN_ELEMENT_THEORY":"SGP4","TLE_LINE2":"2 46132  53.0539 214.5092 0001962  73.3349 286.7856 15.06394406 81103","FILE":"3286235","ARG_OF_PERICENTER":"73.3349","TIME_SYSTEM":"UTC","OBJECT_TYPE":"PAYLOAD","REF_FRAME":"TEME","NORAD_CAT_ID":"46132","REV_AT_EPOCH":"8110","DECAY_DATE":null,"APOAPSIS":"548.589"},{"MEAN_MOTION_DDOT":"0.0000000000000","INCLINATION":"53.0530","ECCENTRICITY":"0.00015200","MEAN_MOTION_DOT":"0.00000306","PERIOD":"95.592","GP_ID":"194842095","OBJECT_NAME":"STARLINK-1637","CLASSIFICATION_TYPE":"U","EPOCH":"2022-01-28T18:30:25.241472","PERIAPSIS":"546.168","SITE":"AFETR","CENTER_NAME":"EARTH","COUNTRY_CODE":"US","RCS_SIZE":"LARGE","EPHEMERIS_TYPE":"0","RA_OF_ASC_NODE":"174.4968","SEMIMAJOR_AXIS":"6925.356","LAUNCH_DATE":"2020-08-18","BSTAR":"0.00003945700000","TLE_LINE1":"1 46133U 20057S   22028.77112548  .00000306  00000-0  39457-4 0  9991","MEAN_ANOMALY":"275.2461","DECAY_DATE":null,"REV_AT_EPOCH":"8165","NORAD_CAT_ID":"46133","REF_FRAME":"TEME","APOAPSIS":"548.274","FILE":"3286235","ARG_OF_PERICENTER":"84.8701","MEAN_ELEMENT_THEORY":"SGP4","TLE_LINE2":"2 46133  53.0530 174.4968 0001520  84.8701 275.2461 15.06397554 81652","OBJECT_TYPE":"PAYLOAD","TIME_SYSTEM":"UTC","OBJECT_ID":"2020-057S","MEAN_MOTION":"15.06397554","ELEMENT_SET_NO":"999"},{"EPHEMERIS_TYPE":"0","RCS_SIZE":"LARGE","COUNTRY_CODE":"US","TLE_LINE1":"1 46134U 20057T   22028.84115359  .00000636  00000-0  61657-4 0  9996","MEAN_ANOMALY":"270.4018","RA_OF_ASC_NODE":"174.1865","SEMIMAJOR_AXIS":"6925.382","LAUNCH_DATE":"2020-08-18","BSTAR":"0.00006165700000","PERIOD":"95.593","MEAN_MOTION_DOT":"0.00000636","ECCENTRICITY":"0.00022060","MEAN_MOTION_DDOT":"0.0000000000000","INCLINATION":"53.0537","SITE":"AFETR","CENTER_NAME":"EARTH","OBJECT_NAME":"STARLINK-1638","CLASSIFICATION_TYPE":"U","PERIAPSIS":"545.719","EPOCH":"2022-01-28T20:11:15.670176","GP_ID":"194842345","MEAN_MOTION":"15.06389248","ELEMENT_SET_NO":"999","OBJECT_ID":"2020-057T","APOAPSIS":"548.774","NORAD_CAT_ID":"46134","REF_FRAME":"TEME","DECAY_DATE":null,"REV_AT_EPOCH":"8041","TIME_SYSTEM":"UTC","OBJECT_TYPE":"PAYLOAD","MEAN_ELEMENT_THEORY":"SGP4","TLE_LINE2":"2 46134  53.0537 174.1865 0002206  89.7223 270.4018 15.06389248 80417","ARG_OF_PERICENTER":"89.7223","FILE":"3286235"},{"LAUNCH_DATE":"2020-08-18","BSTAR":"-0.00001210300000","SEMIMAJOR_AXIS":"6925.346","RA_OF_ASC_NODE":"174.4192","MEAN_ANOMALY":"273.0183","TLE_LINE1":"1 46135U 20057U   22028.78953859 -.00000462  00000-0 -12103-4 0  9996","COUNTRY_CODE":"US","RCS_SIZE":"LARGE","EPHEMERIS_TYPE":"0","GP_ID":"194843097","PERIAPSIS":"545.784","EPOCH":"2022-01-28T18:56:56.134176","CLASSIFICATION_TYPE":"U","OBJECT_NAME":"STARLINK-1639","CENTER_NAME":"EARTH","SITE":"AFETR","INCLINATION":"53.0544","MEAN_MOTION_DDOT":"0.0000000000000","ECCENTRICITY":"0.00020610","MEAN_MOTION_DOT":"-0.00000462","PERIOD":"95.592","OBJECT_ID":"2020-057U","ELEMENT_SET_NO":"999","MEAN_MOTION":"15.06400781","FILE":"3286235","ARG_OF_PERICENTER":"87.1042","TLE_LINE2":"2 46135  53.0544 174.4192 0002061  87.1042 273.0183 15.06400781 80409","MEAN_ELEMENT_THEORY":"SGP4","OBJECT_TYPE":"PAYLOAD","TIME_SYSTEM":"UTC","REV_AT_EPOCH":"8040","DECAY_DATE":null,"REF_FRAME":"TEME","NORAD_CAT_ID":"46135","APOAPSIS":"548.638"},{"ELEMENT_SET_NO":"999","MEAN_MOTION":"15.06394446","OBJECT_ID":"2020-057V","APOAPSIS":"548.687","REF_FRAME":"TEME","NORAD_CAT_ID":"46136","REV_AT_EPOCH":"7998","DECAY_DATE":null,"TIME_SYSTEM":"UTC","OBJECT_TYPE":"PAYLOAD","TLE_LINE2":"2 46136  53.0531 204.4998 0002103  73.6291 286.4929 15.06394446 79984","MEAN_ELEMENT_THEORY":"SGP4","FILE":"3286235","ARG_OF_PERICENTER":"73.6291","EPHEMERIS_TYPE":"0","RCS_SIZE":"LARGE","COUNTRY_CODE":"US","MEAN_ANOMALY":"286.4929","TLE_LINE1":"1 46136U 20057V   22028.77203814  .00000098  00000-0  25519-4 0  9993","SEMIMAJOR_AXIS":"6925.366","LAUNCH_DATE":"2020-08-18","BSTAR":"0.00002551900000","RA_OF_ASC_NODE":"204.4998","PERIOD":"95.592","MEAN_MOTION_DOT":"0.00000098","ECCENTRICITY":"0.00021030","INCLINATION":"53.0531","MEAN_MOTION_DDOT":"0.0000000000000","CENTER_NAME":"EARTH","SITE":"AFETR","EPOCH":"2022-01-28T18:31:44.095296","PERIAPSIS":"545.774","CLASSIFICATION_TYPE":"U","OBJECT_NAME":"STARLINK-1643","GP_ID":"194842848"},{"PERIOD":"95.592","ECCENTRICITY":"0.00022310","MEAN_MOTION_DOT":"0.00002291","MEAN_MOTION_DDOT":"0.0000000000000","INCLINATION":"53.0537","SITE":"AFETR","CENTER_NAME":"EARTH","CLASSIFICATION_TYPE":"U","OBJECT_NAME":"STARLINK-1586","PERIAPSIS":"545.650","EPOCH":"2022-01-28T17:24:03.382560","GP_ID":"194841596","EPHEMERIS_TYPE":"0","RCS_SIZE":"LARGE","COUNTRY_CODE":"US","TLE_LINE1":"1 46137U 20057W   22028.72503915  .00002291  00000-0  17267-3 0  9991","MEAN_ANOMALY":"271.5064","RA_OF_ASC_NODE":"194.6991","LAUNCH_DATE":"2020-08-18","BSTAR":"0.00017267000000","SEMIMAJOR_AXIS":"6925.330","APOAPSIS":"548.740","NORAD_CAT_ID":"46137","REF_FRAME":"TEME","DECAY_DATE":null,"REV_AT_EPOCH":"8011","TIME_SYSTEM":"UTC","OBJECT_TYPE":"PAYLOAD","MEAN_ELEMENT_THEORY":"SGP4","TLE_LINE2":"2 46137  53.0537 194.6991 0002231  88.6180 271.5064 15.06406196 80117","FILE":"3286235","ARG_OF_PERICENTER":"88.6180","MEAN_MOTION":"15.06406196","ELEMENT_SET_NO":"999","OBJECT_ID":"2020-057W"}];
